SL-3 R/B                
1 13403U 82079B   26064.59815600  .00009042  00000+0  36112-3 0  9999
2 13403  81.1477 197.9069 0024896 178.3632 181.7688 15.24724344377070
SL-14 R/B               
1 13553U 82092B   26064.61566595  .00000679  00000+0  73508-4 0  9997
2 13553  82.5701 145.2097 0019243 317.9531 159.4229 14.86661816328325
SL-3 R/B                
1 13819U 83010B   26064.55467820  .00020103  00000+0  40596-3 0  9991
2 13819  81.1066   7.3152 0018329  64.3601 295.9534 15.46178627357309
SL-3 R/B                
1 14208U 83075B   26064.58917328  .00013811  00000+0  36561-3 0  9996
2 14208  97.6138  69.0109 0019805 241.9275 117.9967 15.38298920329527
COSMOS 1536             
1 14699U 84013A   26064.58285331  .00007429  00000+0  30694-3 0  9994
2 14699  82.5433 111.9331 0012740 299.5867  60.4100 15.23762648271998
SL-14 R/B               
1 14820U 84027B   26064.58555959  .00000699  00000+0  77064-4 0  9996
2 14820  82.5381 248.8629 0017712 351.9513   8.1417 14.85971585247027
SL-8 R/B                
1 15483U 85006B   26064.62148559  .00000221  00000+0  81884-4 0  9995
2 15483  74.0432 268.6351 0018608 187.3907 229.2677 14.37779330153448
SL-12 R/B(2)            
1 15772U 85042D   26064.55432426  .00000133  00000+0  81141-4 0  9995
2 15772  71.1063  96.4665 0033428 134.9173 340.1837 14.21981266113805
SL-14 R/B               
1 15945U 85069B   26064.63890293  .00000793  00000+0  86875-4 0  9996
2 15945  82.5277  28.7415 0018110 201.3910 158.6552 14.86427690172235
SL-16 R/B               
1 16182U 85097B   26064.61661403 -.00000090  00000+0 -21326-4 0  9990
2 16182  71.0035 149.1289 0009963 264.6550 197.2173 14.16599676 86654
SL-14 R/B               
1 16496U 86006B   26064.61701792  .00000848  00000+0  87735-4 0  9990
2 16496  82.5233 263.5714 0075131 286.5895  72.7080 14.86808748148606
COSMOS 1743             
1 16719U 86034A   26064.53252506  .00040818  00000+0  53858-3 0  9993
2 16719  82.5294  78.1932 0001970 325.3813  34.7314 15.58209608179607
