CCSDS_OMM_VERS = 2.0
CREATION_DATE  = 
ORIGINATOR     = 

OBJECT_NAME    = SL-3 R/B
OBJECT_ID      = 1982-079B
CENTER_NAME    = EARTH
REF_FRAME      = TEME
TIME_SYSTEM    = UTC
MEAN_ELEMENT_THEORY = SGP/SGP4

EPOCH          = 2026-03-05T14:21:20.678400
MEAN_MOTION    = 15.24724344
ECCENTRICITY   = .00248967
INCLINATION    = 81.1477
RA_OF_ASC_NODE = 197.9069
ARG_OF_PERICENTER = 178.3632
MEAN_ANOMALY   = 181.7688

EPHEMERIS_TYPE = 0
CLASSIFICATION_TYPE = U
NORAD_CAT_ID   = 13403
ELEMENT_SET_NO = 999
REV_AT_EPOCH   = 37707
BSTAR          = .36111502E-3
MEAN_MOTION_DOT = .9042E-4
MEAN_MOTION_DDOT = 0

CCSDS_OMM_VERS = 2.0
CREATION_DATE  = 
ORIGINATOR     = 

OBJECT_NAME    = SL-14 R/B
OBJECT_ID      = 1982-092B
CENTER_NAME    = EARTH
REF_FRAME      = TEME
TIME_SYSTEM    = UTC
MEAN_ELEMENT_THEORY = SGP/SGP4

EPOCH          = 2026-03-05T14:46:33.538080
MEAN_MOTION    = 14.86661816
ECCENTRICITY   = .00192431
INCLINATION    = 82.5701
RA_OF_ASC_NODE = 145.2097
ARG_OF_PERICENTER = 317.9531
MEAN_ANOMALY   = 159.4229

EPHEMERIS_TYPE = 0
CLASSIFICATION_TYPE = U
NORAD_CAT_ID   = 13553
ELEMENT_SET_NO = 999
REV_AT_EPOCH   = 32832
BSTAR          = .73508494E-4
MEAN_MOTION_DOT = .679E-5
MEAN_MOTION_DDOT = 0

CCSDS_OMM_VERS = 2.0
CREATION_DATE  = 
ORIGINATOR     = 

OBJECT_NAME    = SL-3 R/B
OBJECT_ID      = 1983-010B
CENTER_NAME    = EARTH
REF_FRAME      = TEME
TIME_SYSTEM    = UTC
MEAN_ELEMENT_THEORY = SGP/SGP4

EPOCH          = 2026-03-05T13:18:44.196480
MEAN_MOTION    = 15.46178627
ECCENTRICITY   = .0018329
INCLINATION    = 81.1066
RA_OF_ASC_NODE = 7.3152
ARG_OF_PERICENTER = 64.3601
MEAN_ANOMALY   = 295.9534

EPHEMERIS_TYPE = 0
CLASSIFICATION_TYPE = U
NORAD_CAT_ID   = 13819
ELEMENT_SET_NO = 999
REV_AT_EPOCH   = 35730
BSTAR          = .40596413E-3
MEAN_MOTION_DOT = .20103E-3
MEAN_MOTION_DDOT = 0

CCSDS_OMM_VERS = 2.0
CREATION_DATE  = 
ORIGINATOR     = 

OBJECT_NAME    = SL-3 R/B
OBJECT_ID      = 1983-075B
CENTER_NAME    = EARTH
REF_FRAME      = TEME
TIME_SYSTEM    = UTC
MEAN_ELEMENT_THEORY = SGP/SGP4

EPOCH          = 2026-03-05T14:08:24.571392
MEAN_MOTION    = 15.38298920
ECCENTRICITY   = .00198055
INCLINATION    = 97.6138
RA_OF_ASC_NODE = 69.0109
ARG_OF_PERICENTER = 241.9275
MEAN_ANOMALY   = 117.9967

EPHEMERIS_TYPE = 0
CLASSIFICATION_TYPE = U
NORAD_CAT_ID   = 14208
ELEMENT_SET_NO = 999
REV_AT_EPOCH   = 32952
BSTAR          = .36560919E-3
MEAN_MOTION_DOT = .13811E-3
MEAN_MOTION_DDOT = 0

CCSDS_OMM_VERS = 2.0
CREATION_DATE  = 
ORIGINATOR     = 

OBJECT_NAME    = COSMOS 1536
OBJECT_ID      = 1984-013A
CENTER_NAME    = EARTH
REF_FRAME      = TEME
TIME_SYSTEM    = UTC
MEAN_ELEMENT_THEORY = SGP/SGP4

EPOCH          = 2026-03-05T13:59:18.525984
MEAN_MOTION    = 15.23762648
ECCENTRICITY   = .00127407
INCLINATION    = 82.5433
RA_OF_ASC_NODE = 111.9331
ARG_OF_PERICENTER = 299.5867
MEAN_ANOMALY   = 60.4100

EPHEMERIS_TYPE = 0
CLASSIFICATION_TYPE = U
NORAD_CAT_ID   = 14699
ELEMENT_SET_NO = 999
REV_AT_EPOCH   = 27199
BSTAR          = .30694447E-3
MEAN_MOTION_DOT = .7429E-4
MEAN_MOTION_DDOT = 0

CCSDS_OMM_VERS = 2.0
CREATION_DATE  = 
ORIGINATOR     = 

OBJECT_NAME    = SL-14 R/B
OBJECT_ID      = 1984-027B
CENTER_NAME    = EARTH
REF_FRAME      = TEME
TIME_SYSTEM    = UTC
MEAN_ELEMENT_THEORY = SGP/SGP4

EPOCH          = 2026-03-05T14:03:12.348576
MEAN_MOTION    = 14.85971585
ECCENTRICITY   = .00177126
INCLINATION    = 82.5381
RA_OF_ASC_NODE = 248.8629
ARG_OF_PERICENTER = 351.9513
MEAN_ANOMALY   = 8.1417

EPHEMERIS_TYPE = 0
CLASSIFICATION_TYPE = U
NORAD_CAT_ID   = 14820
ELEMENT_SET_NO = 999
REV_AT_EPOCH   = 24702
BSTAR          = .77063876E-4
MEAN_MOTION_DOT = .699E-5
MEAN_MOTION_DDOT = 0

CCSDS_OMM_VERS = 2.0
CREATION_DATE  = 
ORIGINATOR     = 

OBJECT_NAME    = SL-8 R/B
OBJECT_ID      = 1985-006B
CENTER_NAME    = EARTH
REF_FRAME      = TEME
TIME_SYSTEM    = UTC
MEAN_ELEMENT_THEORY = SGP/SGP4

EPOCH          = 2026-03-05T14:54:56.354976
MEAN_MOTION    = 14.37779330
ECCENTRICITY   = .00186081
INCLINATION    = 74.0432
RA_OF_ASC_NODE = 268.6351
ARG_OF_PERICENTER = 187.3907
MEAN_ANOMALY   = 229.2677

EPHEMERIS_TYPE = 0
CLASSIFICATION_TYPE = U
NORAD_CAT_ID   = 15483
ELEMENT_SET_NO = 999
REV_AT_EPOCH   = 15344
BSTAR          = .8188391E-4
MEAN_MOTION_DOT = .221E-5
MEAN_MOTION_DDOT = 0

CCSDS_OMM_VERS = 2.0
CREATION_DATE  = 
ORIGINATOR     = 

OBJECT_NAME    = SL-12 R/B(2)
OBJECT_ID      = 1985-042D
CENTER_NAME    = EARTH
REF_FRAME      = TEME
TIME_SYSTEM    = UTC
MEAN_ELEMENT_THEORY = SGP/SGP4

EPOCH          = 2026-03-05T13:18:13.616064
MEAN_MOTION    = 14.21981266
ECCENTRICITY   = .00334286
INCLINATION    = 71.1063
RA_OF_ASC_NODE = 96.4665
ARG_OF_PERICENTER = 134.9173
MEAN_ANOMALY   = 340.1837

EPHEMERIS_TYPE = 0
CLASSIFICATION_TYPE = U
NORAD_CAT_ID   = 15772
ELEMENT_SET_NO = 999
REV_AT_EPOCH   = 11380
BSTAR          = .81140918E-4
MEAN_MOTION_DOT = .133E-5
MEAN_MOTION_DDOT = 0

CCSDS_OMM_VERS = 2.0
CREATION_DATE  = 
ORIGINATOR     = 

OBJECT_NAME    = SL-14 R/B
OBJECT_ID      = 1985-069B
CENTER_NAME    = EARTH
REF_FRAME      = TEME
TIME_SYSTEM    = UTC
MEAN_ELEMENT_THEORY = SGP/SGP4

EPOCH          = 2026-03-05T15:20:01.213152
MEAN_MOTION    = 14.86427690
ECCENTRICITY   = .00181107
INCLINATION    = 82.5277
RA_OF_ASC_NODE = 28.7415
ARG_OF_PERICENTER = 201.3910
MEAN_ANOMALY   = 158.6552

EPHEMERIS_TYPE = 0
CLASSIFICATION_TYPE = U
NORAD_CAT_ID   = 15945
ELEMENT_SET_NO = 999
REV_AT_EPOCH   = 17223
BSTAR          = .86875016E-4
MEAN_MOTION_DOT = .793E-5
MEAN_MOTION_DDOT = 0

CCSDS_OMM_VERS = 2.0
CREATION_DATE  = 
ORIGINATOR     = 

OBJECT_NAME    = SL-16 R/B
OBJECT_ID      = 1985-097B
CENTER_NAME    = EARTH
REF_FRAME      = TEME
TIME_SYSTEM    = UTC
MEAN_ELEMENT_THEORY = SGP/SGP4

EPOCH          = 2026-03-05T14:47:55.452192
MEAN_MOTION    = 14.16599676
ECCENTRICITY   = .0009963
INCLINATION    = 71.0035
RA_OF_ASC_NODE = 149.1289
ARG_OF_PERICENTER = 264.6550
MEAN_ANOMALY   = 197.2173

EPHEMERIS_TYPE = 0
CLASSIFICATION_TYPE = U
NORAD_CAT_ID   = 16182
ELEMENT_SET_NO = 999
REV_AT_EPOCH   = 8665
BSTAR          = -.213259E-4
MEAN_MOTION_DOT = -.9E-6
MEAN_MOTION_DDOT = 0

CCSDS_OMM_VERS = 2.0
CREATION_DATE  = 
ORIGINATOR     = 

OBJECT_NAME    = SL-14 R/B
OBJECT_ID      = 1986-006B
CENTER_NAME    = EARTH
REF_FRAME      = TEME
TIME_SYSTEM    = UTC
MEAN_ELEMENT_THEORY = SGP/SGP4

EPOCH          = 2026-03-05T14:48:30.348288
MEAN_MOTION    = 14.86808748
ECCENTRICITY   = .00751313
INCLINATION    = 82.5233
RA_OF_ASC_NODE = 263.5714
ARG_OF_PERICENTER = 286.5895
MEAN_ANOMALY   = 72.7080

EPHEMERIS_TYPE = 0
CLASSIFICATION_TYPE = U
NORAD_CAT_ID   = 16496
ELEMENT_SET_NO = 999
REV_AT_EPOCH   = 14860
BSTAR          = .8773461E-4
MEAN_MOTION_DOT = .848E-5
MEAN_MOTION_DDOT = 0

CCSDS_OMM_VERS = 2.0
CREATION_DATE  = 
ORIGINATOR     = 

OBJECT_NAME    = COSMOS 1743
OBJECT_ID      = 1986-034A
CENTER_NAME    = EARTH
REF_FRAME      = TEME
TIME_SYSTEM    = UTC
MEAN_ELEMENT_THEORY = SGP/SGP4

EPOCH          = 2026-03-05T12:46:50.165184
MEAN_MOTION    = 15.58209608
ECCENTRICITY   = .00019701
INCLINATION    = 82.5294
RA_OF_ASC_NODE = 78.1932
ARG_OF_PERICENTER = 325.3813
MEAN_ANOMALY   = 34.7314

EPHEMERIS_TYPE = 0
CLASSIFICATION_TYPE = U
NORAD_CAT_ID   = 16719
ELEMENT_SET_NO = 999
REV_AT_EPOCH   = 17960
BSTAR          = .53858263E-3
MEAN_MOTION_DOT = .40818E-3
MEAN_MOTION_DDOT = 0

